STARLINK-31305          
1 59232U 24049B   26068.26605231 -.00003517  00000+0 -11838-3 0  9998
2 59232  43.0033 145.7122 0001297 267.3555  92.7148 15.27570268112323
REAL                    
1 64875U 25154G   26068.72233414  .00022901  00000+0  82904-3 0  9994
2 64875  97.4133 137.2581 0001853 118.5876 241.5550 15.28408058 34830
